[{"OBJECT_NAME":"YAOGAN-22","OBJECT_ID":"2014-063A","EPOCH":"2026-03-09T22:32:09.245760","MEAN_MOTION":13.15527162,"ECCENTRICITY":0.00066374,"INCLINATION":100.7539,"RA_OF_ASC_NODE":218.6258,"ARG_OF_PERICENTER":57.4372,"MEAN_ANOMALY":302.7379,"EPHEMERIS_TYPE":0,"CLASSIFICATION_TYPE":"U","NORAD_CAT_ID":40275,"ELEMENT_SET_NO":999,"REV_AT_EPOCH":54676,"BSTAR":6.3182543e-5,"MEAN_MOTION_DOT":-2.3e-7,"MEAN_MOTION_DDOT":0},{"OBJECT_NAME":"SL-14 DEB","OBJECT_ID":"1991-056CJ","EPOCH":"2026-03-09T08:37:41.604384","MEAN_MOTION":13.22373927,"ECCENTRICITY":0.0039311,"INCLINATION":82.5888,"RA_OF_ASC_NODE":206.0663,"ARG_OF_PERICENTER":196.4077,"MEAN_ANOMALY":163.5779,"EPHEMERIS_TYPE":0,"CLASSIFICATION_TYPE":"U","NORAD_CAT_ID":45350,"ELEMENT_SET_NO":999,"REV_AT_EPOCH":29262,"BSTAR":0.0015036657,"MEAN_MOTION_DOT":6.41e-6,"MEAN_MOTION_DDOT":0}]
